[
    {
        "Altitude(m)": 708225.1742337984,
        "Argument of Periapsis(deg)": 0.0034170363559881197,
        "Eccentricity": 0.0,
        "Inclination(deg)": 45.0,
        "Latitude(deg)": -20.378668234667558,
        "Longitude(deg)": -86.89394442883726,
        "Mean Anomaly(deg)": -29.267335005755783,
        "RAAN(deg)": 34.996774417562534,
        "Satellite Name": "Constellation 1 174",
        "Satellite Number": 174,
        "Semi-Major Axis(m)": 7083131.272910544,
        "Time(s)": 57
    },
    {
        "Altitude(m)": 708211.9884077266,
        "Argument of Periapsis(deg)": 0.003476984362233526,
        "Eccentricity": 0.0,
        "Inclination(deg)": 45.0,
        "Latitude(deg)": -20.338593724645794,
        "Longitude(deg)": -86.8493862197641,
        "Mean Anomaly(deg)": -29.20663386550587,
        "RAAN(deg)": 34.99671782839697,
        "Satellite Name": "Constellation 1 174",
        "Satellite Number": 174,
        "Semi-Major Axis(m)": 7083131.272910544,
        "Time(s)": 58
    },
    {
        "Altitude(m)": 708198.8103704909,
        "Argument of Periapsis(deg)": 0.003536932368478932,
        "Eccentricity": 0.0,
        "Inclination(deg)": 45.0,
        "Latitude(deg)": -20.298505395967045,
        "Longitude(deg)": -86.8048531324958,
        "Mean Anomaly(deg)": -29.145932725255907,
        "RAAN(deg)": 34.99666123923139,
        "Satellite Name": "Constellation 1 174",
        "Satellite Number": 174,
        "Semi-Major Axis(m)": 7083131.272910544,
        "Time(s)": 59
    },
    {
        "Altitude(m)": 708185.6401649956,
        "Argument of Periapsis(deg)": 0.003596880374724337,
        "Eccentricity": 0.0,
        "Inclination(deg)": 45.0,
        "Latitude(deg)": -20.258403284649884,
        "Longitude(deg)": -86.76034477282099,
        "Mean Anomaly(deg)": -29.085231585006103,
        "RAAN(deg)": 34.996604650065834,
        "Satellite Name": "Constellation 1 174",
        "Satellite Number": 174,
        "Semi-Major Axis(m)": 7083131.272910544,
        "Time(s)": 60
    },
    {
        "Altitude(m)": 708172.4778340914,
        "Argument of Periapsis(deg)": 0.0036568283809697427,
        "Eccentricity": 0.0,
        "Inclination(deg)": 45.0,
        "Latitude(deg)": -20.218287426663846,
        "Longitude(deg)": -86.71586125084612,
        "Mean Anomaly(deg)": -29.024530444756184,
        "RAAN(deg)": 34.99654806090026,
        "Satellite Name": "Constellation 1 174",
        "Satellite Number": 174,
        "Semi-Major Axis(m)": 7083131.272910544,
        "Time(s)": 61
    },
    {
        "Altitude(m)": 708159.3234205971,
        "Argument of Periapsis(deg)": 0.003716776387215149,
        "Eccentricity": 0.0,
        "Inclination(deg)": 45.0,
        "Latitude(deg)": -20.178157857930277,
        "Longitude(deg)": -86.67140250860756,
        "Mean Anomaly(deg)": -28.96382930450628,
        "RAAN(deg)": 34.996491471734686,
        "Satellite Name": "Constellation 1 174",
        "Satellite Number": 174,
        "Semi-Major Axis(m)": 7083131.272910544,
        "Time(s)": 62
    },
    {
        "Altitude(m)": 708146.1769672787,
        "Argument of Periapsis(deg)": 0.003776724393460554,
        "Eccentricity": 0.0,
        "Inclination(deg)": 45.0,
        "Latitude(deg)": -20.13801461432194,
        "Longitude(deg)": -86.62696848816822,
        "Mean Anomaly(deg)": -28.90312816425632,
        "RAAN(deg)": 34.99643488256911,
        "Satellite Name": "Constellation 1 174",
        "Satellite Number": 174,
        "Semi-Major Axis(m)": 7083131.272910544,
        "Time(s)": 63
    },
    {
        "Altitude(m)": 708133.0385168594,
        "Argument of Periapsis(deg)": 0.003836672399705959,
        "Eccentricity": 0.0,
        "Inclination(deg)": 45.0,
        "Latitude(deg)": -20.097857731663538,
        "Longitude(deg)": -86.58255913161828,
        "Mean Anomaly(deg)": -28.84242702400646,
        "RAAN(deg)": 34.99637829340355,
        "Satellite Name": "Constellation 1 174",
        "Satellite Number": 174,
        "Semi-Major Axis(m)": 7083131.272910544,
        "Time(s)": 64
    },
    {
        "Altitude(m)": 708119.9081120135,
        "Argument of Periapsis(deg)": 0.003896620405951365,
        "Eccentricity": 0.0,
        "Inclination(deg)": 45.0,
        "Latitude(deg)": -20.05768724573133,
        "Longitude(deg)": -86.53817438107461,
        "Mean Anomaly(deg)": -28.7817258837566,
        "RAAN(deg)": 34.99632170423798,
        "Satellite Name": "Constellation 1 174",
        "Satellite Number": 174,
        "Semi-Major Axis(m)": 7083131.272910544,
        "Time(s)": 65
    },
    {
        "Altitude(m)": 708106.7857953823,
        "Argument of Periapsis(deg)": 0.003956568412196771,
        "Eccentricity": 0.0,
        "Inclination(deg)": 45.0,
        "Latitude(deg)": -20.01750319225362,
        "Longitude(deg)": -86.49381417868122,
        "Mean Anomaly(deg)": -28.721024743506685,
        "RAAN(deg)": 34.99626511507241,
        "Satellite Name": "Constellation 1 174",
        "Satellite Number": 174,
        "Semi-Major Axis(m)": 7083131.272910544,
        "Time(s)": 66
    },
    {
        "Altitude(m)": 708093.6716095462,
        "Argument of Periapsis(deg)": 0.004016516418442176,
        "Eccentricity": 0.0,
        "Inclination(deg)": 45.0,
        "Latitude(deg)": -19.977305606910804,
        "Longitude(deg)": -86.44947863470667,
        "Mean Anomaly(deg)": -28.660323603256778,
        "RAAN(deg)": 34.996208525906844,
        "Satellite Name": "Constellation 1 174",
        "Satellite Number": 174,
        "Semi-Major Axis(m)": 7083131.272910544,
        "Time(s)": 67
    },
    {
        "Altitude(m)": 708080.5655970473,
        "Argument of Periapsis(deg)": 0.004076464424687581,
        "Eccentricity": 0.0,
        "Inclination(deg)": 45.0,
        "Latitude(deg)": -19.93709452533547,
        "Longitude(deg)": -86.40516735515502,
        "Mean Anomaly(deg)": -28.59962246300687,
        "RAAN(deg)": 34.99615193674127,
        "Satellite Name": "Constellation 1 174",
        "Satellite Number": 174,
        "Semi-Major Axis(m)": 7083131.272910544,
        "Time(s)": 68
    },
    {
        "Altitude(m)": 708067.4678003858,
        "Argument of Periapsis(deg)": 0.004136412430932987,
        "Eccentricity": 0.0,
        "Inclination(deg)": 45.0,
        "Latitude(deg)": -19.8968699831124,
        "Longitude(deg)": -86.36088045034931,
        "Mean Anomaly(deg)": -28.53892132275696,
        "RAAN(deg)": 34.9960953475757,
        "Satellite Name": "Constellation 1 174",
        "Satellite Number": 174,
        "Semi-Major Axis(m)": 7083131.272910544,
        "Time(s)": 69
    },
    {
        "Altitude(m)": 708054.3782620106,
        "Argument of Periapsis(deg)": 0.004196360437178394,
        "Eccentricity": 0.0,
        "Inclination(deg)": 45.0,
        "Latitude(deg)": -19.856632015778843,
        "Longitude(deg)": -86.31661786254277,
        "Mean Anomaly(deg)": -28.47822018250705,
        "RAAN(deg)": 34.99603875841014,
        "Satellite Name": "Constellation 1 174",
        "Satellite Number": 174,
        "Semi-Major Axis(m)": 7083131.272910544,
        "Time(s)": 70
    },
    {
        "Altitude(m)": 708041.2970243283,
        "Argument of Periapsis(deg)": 0.004256308443423799,
        "Eccentricity": 0.0,
        "Inclination(deg)": 45.0,
        "Latitude(deg)": -19.81638065882457,
        "Longitude(deg)": -86.2723795340161,
        "Mean Anomaly(deg)": -28.41751904225719,
        "RAAN(deg)": 34.99598216924456,
        "Satellite Name": "Constellation 1 174",
        "Satellite Number": 174,
        "Semi-Major Axis(m)": 7083131.272910544,
        "Time(s)": 71
    },
    {
        "Altitude(m)": 708028.224129698,
        "Argument of Periapsis(deg)": 0.004316256449669204,
        "Eccentricity": 0.0,
        "Inclination(deg)": 45.0,
        "Latitude(deg)": -19.776115947691885,
        "Longitude(deg)": -86.22816540707748,
        "Mean Anomaly(deg)": -28.356817902007283,
        "RAAN(deg)": 34.995925580078996,
        "Satellite Name": "Constellation 1 174",
        "Satellite Number": 174,
        "Semi-Major Axis(m)": 7083131.272910544,
        "Time(s)": 72
    },
    {
        "Altitude(m)": 708015.1596204244,
        "Argument of Periapsis(deg)": 0.00437620445591461,
        "Eccentricity": 0.0,
        "Inclination(deg)": 45.0,
        "Latitude(deg)": -19.73583791777594,
        "Longitude(deg)": -86.18397542406288,
        "Mean Anomaly(deg)": -28.296116761757368,
        "RAAN(deg)": 34.99586899091342,
        "Satellite Name": "Constellation 1 174",
        "Satellite Number": 174,
        "Semi-Major Axis(m)": 7083131.272910544,
        "Time(s)": 73
    },
    {
        "Altitude(m)": 708002.103538783,
        "Argument of Periapsis(deg)": 0.004436152462160016,
        "Eccentricity": 0.0,
        "Inclination(deg)": 45.0,
        "Latitude(deg)": -19.69554660442473,
        "Longitude(deg)": -86.13980969543307,
        "Mean Anomaly(deg)": -28.235415621507517,
        "RAAN(deg)": 34.995812401747855,
        "Satellite Name": "Constellation 1 174",
        "Satellite Number": 174,
        "Semi-Major Axis(m)": 7083131.272910544,
        "Time(s)": 74
    },
    {
        "Altitude(m)": 707989.0559269884,
        "Argument of Periapsis(deg)": 0.0044961004684054215,
        "Eccentricity": 0.0,
        "Inclination(deg)": 45.0,
        "Latitude(deg)": -19.65524204293915,
        "Longitude(deg)": -86.095667827385,
        "Mean Anomaly(deg)": -28.17471448125755,
        "RAAN(deg)": 34.99575581258228,
        "Satellite Name": "Constellation 1 174",
        "Satellite Number": 174,
        "Semi-Major Axis(m)": 7083131.272910544,
        "Time(s)": 75
    }
]